id,location_id,organization_id,attention,address_1,city,region,state_province,postal_code,country
,,,,"Illinois Equal Justice Foundation180 North Stetson, Suite 820Chicago, IL 60601",,,,,
,,,,"150 Court Street2nd FloorBrooklyn, NY 11201",,,,,
,,,,"67 East Madison StreetSuite 2000Chicago, IL 60603",,,,,
,,,,"P.O. Box 726Homewood, IL 60430",,,,,
,,,,"100 North LaSalle StreetSuite 600Chicago, IL 60602",,,,,
,,,,"167 N. Ottawa Street, 2nd FloorJoliet, IL 60432",,,,,
,,,,"PO Box 731Glenview, IL 60091",,,,,
,,,,"800 East Northwest HighwaySuite 418Palitine, IL 60074",,,,,
,,,,"411 Hamilton Blvd.Suite 1618Peoria, IL 61602",,,,,
,,,,"7115 W. North Ave #253Oak Park, IL 60302",,,,,
,,,,"11 East Adams StreetSuite 500Chicago, IL 60603",,,,,
,,,,"208 S. Jefferson StreetSuite 204Chicago, IL 60661",,,,,
,,,,"77 W Washington StSuite 1820Chicago, IL 60602",,,,,
,,,,"P.O. Box 571Geneva, IL 60134",,,,,
,,,,"120 South LaSalle StreetSuite 900Chicago, IL 60603",,,,,
,,,,"300 Grand Ave STE AWaukegan, IL 60085",,,,,
,,,,"105 W. AdamsSuite 2600Chicago, IL 60603",,,,,
,,,,"P.O. Box 64933Chicago, IL 60664",,,,,
,,,,"70 East Lake StreetSuite 600Chicago, IL 60601",,,,,
,,,,"205 West Randolph StreetSuite 510Chicago, IL 60606",,,,,
,,,,"20 S. Clark St.Suite 910Chicago, IL 60603",,,,,
,,,,"55 East Jackson BoulevardSuite 2075Chicago, IL 60604",,,,,
,,,,"Pension Action Center, Gerontology InstituteUniversity of Massachusetts Boston 100 Morrissey Blvd.Boston, MA 02125",,,,,
,,,,"17th N. State13th Floor, Suite #1380Chicago, IL 60602",,,,,
,,,,"19 S. LaSalle StreetSuite 702Chicago, IL 60603",,,,,
,,,,"25 East Jackson Blvd.Chicago, IL 60604",,,,,
,,,,"126 S. County Farm Rd.Wheaton, IL 60187",,,,,
,,,,"20 North Michigan AvenueSuite 300Chicago, IL 60602",,,,,
,,,,"70 East Lake StreetSuite 1100Chicago, IL 60601",,,,,
,,,,"17 North State StreetSuite 1850Chicago, IL 60602",,,,,
,,,,"70 East Lake StreetSuite 720Chicago, IL 60601",,,,,
,,,,"100 North LaSalle StreetSuite 600Chicago, IL 60602",,,,,
,,,,"211 West Wacker DriveSuite 750Chicago, IL 60617",,,,,
